{
  "type": "FeatureCollection",
  "features": [
    {
      "type": "Feature",
      "properties": {
        "norad_id": 35043,
        "name": "COSMOS 2251 DEB",
        "group": "cosmos-2251-debris",
        "lat": 31.34926532465469,
        "lon": -163.72982692110855,
        "alt_km": 631.2843700158946,
        "timestamp": "2025-12-22T11:33:20.835945+00:00",
        "meta_object_name": "COSMOS 2251 DEB",
        "meta_object_id": "1993-036AHG",
        "meta_epoch": "2025-12-21T08:52:47.877312",
        "meta_mean_motion": 14.7734035,
        "meta_eccentricity": 0.00957897,
        "meta_inclination": 73.9513,
        "meta_ra_of_asc_node": 28.5607,
        "meta_arg_of_pericenter": 236.5232,
        "meta_mean_anomaly": 122.6761,
        "meta_ephemeris_type": 0,
        "meta_classification_type": "U",
        "meta_norad_cat_id": 35043,
        "meta_element_set_no": 999,
        "meta_rev_at_epoch": 67546,
        "meta_bstar": 0.0026010267,
        "meta_mean_motion_dot": 0.00019965,
        "meta_mean_motion_ddot": 0,
        "tle_line1": "1 35043U 93036AHG 25355.36999858  .00019965  00000+0  26010-2 0  9993",
        "tle_line2": "2 35043  73.9513  28.5607 0095789 236.5232 122.6761 14.77340350675461"
      },
      "geometry": {
        "type": "Point",
        "coordinates": [
          -163.72982692110855,
          31.34926532465469
        ]
      }
    },
    {
      "type": "Feature",
      "properties": {
        "norad_id": 35045,
        "name": "COSMOS 2251 DEB",
        "group": "cosmos-2251-debris",
        "lat": 16.89606002839349,
        "lon": -149.592889171498,
        "alt_km": 944.5897474920021,
        "timestamp": "2025-12-22T11:33:20.835955+00:00",
        "meta_object_name": "COSMOS 2251 DEB",
        "meta_object_id": "1993-036AHJ",
        "meta_epoch": "2025-12-20T12:28:28.167744",
        "meta_mean_motion": 14.00402013,
        "meta_eccentricity": 0.0183906,
        "meta_inclination": 73.7193,
        "meta_ra_of_asc_node": 38.9629,
        "meta_arg_of_pericenter": 279.9128,
        "meta_mean_anomaly": 78.1289,
        "meta_ephemeris_type": 0,
        "meta_classification_type": "U",
        "meta_norad_cat_id": 35045,
        "meta_element_set_no": 999,
        "meta_rev_at_epoch": 84752,
        "meta_bstar": 0.0005282,
        "meta_mean_motion_dot": 8.78e-06,
        "meta_mean_motion_ddot": 0,
        "tle_line1": "1 35045U 93036AHJ 25354.51977046  .00000878  00000+0  52820-3 0  9998",
        "tle_line2": "2 35045  73.7193  38.9629 0183906 279.9128  78.1289 14.00402013847527"
      },
      "geometry": {
        "type": "Point",
        "coordinates": [
          -149.592889171498,
          16.89606002839349
        ]
      }
    },
    {
      "type": "Feature",
      "properties": {
        "norad_id": 35060,
        "name": "COSMOS 2251 DEB",
        "group": "cosmos-2251-debris",
        "lat": 68.18172669932667,
        "lon": -88.06997638118003,
        "alt_km": 753.5743043922048,
        "timestamp": "2025-12-22T11:33:20.835965+00:00",
        "meta_object_name": "COSMOS 2251 DEB",
        "meta_object_id": "1993-036AHP",
        "meta_epoch": "2025-12-17T09:37:48.798336",
        "meta_mean_motion": 14.41611034,
        "meta_eccentricity": 0.00186104,
        "meta_inclination": 74.0362,
        "meta_ra_of_asc_node": 235.6937,
        "meta_arg_of_pericenter": 321.6138,
        "meta_mean_anomaly": 38.3692,
        "meta_ephemeris_type": 0,
        "meta_classification_type": "U",
        "meta_norad_cat_id": 35060,
        "meta_element_set_no": 999,
        "meta_rev_at_epoch": 87309,
        "meta_bstar": 0.00026105938,
        "meta_mean_motion_dot": 8.25e-06,
        "meta_mean_motion_ddot": 0,
        "tle_line1": "1 35060U 93036AHP 25351.40125924  .00000825  00000+0  26106-3 0  9990",
        "tle_line2": "2 35060  74.0362 235.6937 0018610 321.6138  38.3692 14.41611034873096"
      },
      "geometry": {
        "type": "Point",
        "coordinates": [
          -88.06997638118003,
          68.18172669932667
        ]
      }
    },
    {
      "type": "Feature",
      "properties": {
        "norad_id": 35061,
        "name": "COSMOS 2251 DEB",
        "group": "cosmos-2251-debris",
        "lat": 19.810227867496206,
        "lon": 100.99532376930243,
        "alt_km": 683.1253467606948,
        "timestamp": "2025-12-22T11:33:20.835975+00:00",
        "meta_object_name": "COSMOS 2251 DEB",
        "meta_object_id": "1993-036AHQ",
        "meta_epoch": "2025-12-22T02:39:26.392032",
        "meta_mean_motion": 14.67900627,
        "meta_eccentricity": 0.0039555,
        "meta_inclination": 74.0464,
        "meta_ra_of_asc_node": 287.6256,
        "meta_arg_of_pericenter": 35.8445,
        "meta_mean_anomaly": 324.5367,
        "meta_ephemeris_type": 0,
        "meta_classification_type": "U",
        "meta_norad_cat_id": 35061,
        "meta_element_set_no": 999,
        "meta_rev_at_epoch": 88712,
        "meta_bstar": 0.00075309,
        "meta_mean_motion_dot": 4.328e-05,
        "meta_mean_motion_ddot": 0,
        "tle_line1": "1 35061U 93036AHQ 25356.11072213  .00004328  00000+0  75309-3 0  9997",
        "tle_line2": "2 35061  74.0464 287.6256 0039555  35.8445 324.5367 14.67900627887122"
      },
      "geometry": {
        "type": "Point",
        "coordinates": [
          100.99532376930243,
          19.810227867496206
        ]
      }
    },
    {
      "type": "Feature",
      "properties": {
        "norad_id": 35062,
        "name": "COSMOS 2251 DEB",
        "group": "cosmos-2251-debris",
        "lat": 72.42420637701159,
        "lon": 140.08384201664703,
        "alt_km": 718.2381971971581,
        "timestamp": "2025-12-22T11:33:20.835985+00:00",
        "meta_object_name": "COSMOS 2251 DEB",
        "meta_object_id": "1993-036AHR",
        "meta_epoch": "2025-12-20T22:03:28.302048",
        "meta_mean_motion": 14.22993492,
        "meta_eccentricity": 0.0126453,
        "meta_inclination": 74.0793,
        "meta_ra_of_asc_node": 78.5797,
        "meta_arg_of_pericenter": 75.845,
        "meta_mean_anomaly": 285.6708,
        "meta_ephemeris_type": 0,
        "meta_classification_type": "U",
        "meta_norad_cat_id": 35062,
        "meta_element_set_no": 999,
        "meta_rev_at_epoch": 85615,
        "meta_bstar": 0.0011493,
        "meta_mean_motion_dot": 2.786e-05,
        "meta_mean_motion_ddot": 0,
        "tle_line1": "1 35062U 93036AHR 25354.91907757  .00002786  00000+0  11493-2 0  9993",
        "tle_line2": "2 35062  74.0793  78.5797 0126453  75.8450 285.6708 14.22993492856157"
      },
      "geometry": {
        "type": "Point",
        "coordinates": [
          140.08384201664703,
          72.42420637701159
        ]
      }
    },
    {
      "type": "Feature",
      "properties": {
        "norad_id": 35065,
        "name": "COSMOS 2251 DEB",
        "group": "cosmos-2251-debris",
        "lat": -25.87294902572607,
        "lon": 4.14164081169042,
        "alt_km": 745.5470897603145,
        "timestamp": "2025-12-22T11:33:20.835995+00:00",
        "meta_object_name": "COSMOS 2251 DEB",
        "meta_object_id": "1993-036AHU",
        "meta_epoch": "2025-12-19T06:12:25.656192",
        "meta_mean_motion": 14.4574331,
        "meta_eccentricity": 0.0020018,
        "meta_inclination": 74.0185,
        "meta_ra_of_asc_node": 182.1668,
        "meta_arg_of_pericenter": 306.5523,
        "meta_mean_anomaly": 53.3791,
        "meta_ephemeris_type": 0,
        "meta_classification_type": "U",
        "meta_norad_cat_id": 35065,
        "meta_element_set_no": 999,
        "meta_rev_at_epoch": 68445,
        "meta_bstar": 0.00028971,
        "meta_mean_motion_dot": 1.002e-05,
        "meta_mean_motion_ddot": 0,
        "tle_line1": "1 35065U 93036AHU 25353.25863028  .00001002  00000+0  28971-3 0  9994",
        "tle_line2": "2 35065  74.0185 182.1668 0020018 306.5523  53.3791 14.45743310684450"
      },
      "geometry": {
        "type": "Point",
        "coordinates": [
          4.14164081169042,
          -25.87294902572607
        ]
      }
    },
    {
      "type": "Feature",
      "properties": {
        "norad_id": 35071,
        "name": "COSMOS 2251 DEB",
        "group": "cosmos-2251-debris",
        "lat": -63.53970514494453,
        "lon": 118.01522515583306,
        "alt_km": 583.0474330465922,
        "timestamp": "2025-12-22T11:33:20.836005+00:00",
        "meta_object_name": "COSMOS 2251 DEB",
        "meta_object_id": "1993-036AJA",
        "meta_epoch": "2025-12-15T18:34:31.974816",
        "meta_mean_motion": 15.0351885,
        "meta_eccentricity": 0.00682233,
        "meta_inclination": 73.9308,
        "meta_ra_of_asc_node": 167.1964,
        "meta_arg_of_pericenter": 62.71,
        "meta_mean_anomaly": 298.1014,
        "meta_ephemeris_type": 0,
        "meta_classification_type": "U",
        "meta_norad_cat_id": 35071,
        "meta_element_set_no": 999,
        "meta_rev_at_epoch": 67582,
        "meta_bstar": 0.00048026378,
        "meta_mean_motion_dot": 6.858e-05,
        "meta_mean_motion_ddot": 0,
        "tle_line1": "1 35071U 93036AJA 25349.77398119  .00006858  00000+0  48026-3 0  9994",
        "tle_line2": "2 35071  73.9308 167.1964 0068223  62.7100 298.1014 15.03518850675828"
      },
      "geometry": {
        "type": "Point",
        "coordinates": [
          118.01522515583306,
          -63.53970514494453
        ]
      }
    }
  ]
}